{"fetched_at":"2026-07-20T18:28:50.031Z","source":"https://celestrak.org/NORAD/elements/gp.php?GROUP=kuiper&FORMAT=JSON","constellation":"kuiper","records":[{"OBJECT_NAME":"KUIPER-00517","OBJECT_ID":"2026-140J","EPOCH":"2026-07-19T12:52:23.073888","CLASSIFICATION_TYPE":"U","MEAN_MOTION":15.38819819,"ECCENTRICITY":0.0011246,"INCLINATION":51.8758,"RA_OF_ASC_NODE":242.039,"ARG_OF_PERICENTER":311.9337,"MEAN_ANOMALY":48.0691,"EPHEMERIS_TYPE":0,"NORAD_CAT_ID":69600,"ELEMENT_SET_NO":999,"REV_AT_EPOCH":621,"BSTAR":0.00035677,"MEAN_MOTION_DOT":0.00013564,"MEAN_MOTION_DDOT":0},{"OBJECT_NAME":"KUIPER-00520","OBJECT_ID":"2026-140K","EPOCH":"2026-07-19T10:24:47.019456","CLASSIFICATION_TYPE":"U","MEAN_MOTION":15.37708901,"ECCENTRICITY":0.00069259,"INCLINATION":51.8804,"RA_OF_ASC_NODE":242.8577,"ARG_OF_PERICENTER":8.4448,"MEAN_ANOMALY":351.6654,"EPHEMERIS_TYPE":0,"NORAD_CAT_ID":69601,"ELEMENT_SET_NO":999,"REV_AT_EPOCH":619,"BSTAR":0.00051863301,"MEAN_MOTION_DOT":0.00019175,"MEAN_MOTION_DDOT":0},{"OBJECT_NAME":"KUIPER-00522","OBJECT_ID":"2026-140L","EPOCH":"2026-07-19T12:48:24.120864","CLASSIFICATION_TYPE":"U","MEAN_MOTION":15.38651516,"ECCENTRICITY":0.0013147,"INCLINATION":51.8766,"RA_OF_ASC_NODE":242.0251,"ARG_OF_PERICENTER":283.3079,"MEAN_ANOMALY":76.6442,"EPHEMERIS_TYPE":0,"NORAD_CAT_ID":69602,"ELEMENT_SET_NO":999,"REV_AT_EPOCH":621,"BSTAR":0.00033031,"MEAN_MOTION_DOT":0.00012465,"MEAN_MOTION_DDOT":0},{"OBJECT_NAME":"KUIPER-00528","OBJECT_ID":"2026-140M","EPOCH":"2026-07-19T19:50:56.147136","CLASSIFICATION_TYPE":"U","MEAN_MOTION":15.37490714,"ECCENTRICITY":0.00059008,"INCLINATION":51.8754,"RA_OF_ASC_NODE":240.9809,"ARG_OF_PERICENTER":17.3134,"MEAN_ANOMALY":342.8053,"EPHEMERIS_TYPE":0,"NORAD_CAT_ID":69603,"ELEMENT_SET_NO":999,"REV_AT_EPOCH":625,"BSTAR":0.00026985246,"MEAN_MOTION_DOT":0.00009702,"MEAN_MOTION_DDOT":0},{"OBJECT_NAME":"KUIPER-00532","OBJECT_ID":"2026-140N","EPOCH":"2026-07-19T09:15:41.670144","CLASSIFICATION_TYPE":"U","MEAN_MOTION":15.36553619,"ECCENTRICITY":0.00048998,"INCLINATION":51.8794,"RA_OF_ASC_NODE":243.2657,"ARG_OF_PERICENTER":54.4461,"MEAN_ANOMALY":305.6982,"EPHEMERIS_TYPE":0,"NORAD_CAT_ID":69604,"ELEMENT_SET_NO":999,"REV_AT_EPOCH":618,"BSTAR":0.00027728415,"MEAN_MOTION_DOT":0.00009674,"MEAN_MOTION_DDOT":0},{"OBJECT_NAME":"KUIPER-00533","OBJECT_ID":"2026-140P","EPOCH":"2026-07-19T19:24:40.246560","CLASSIFICATION_TYPE":"U","MEAN_MOTION":15.38336531,"ECCENTRICITY":0.0008445,"INCLINATION":51.8761,"RA_OF_ASC_NODE":240.8622,"ARG_OF_PERICENTER":344.1922,"MEAN_ANOMALY":15.88,"EPHEMERIS_TYPE":0,"NORAD_CAT_ID":69605,"ELEMENT_SET_NO":999,"REV_AT_EPOCH":625,"BSTAR":0.00032338242,"MEAN_MOTION_DOT":0.00012049,"MEAN_MOTION_DDOT":0},{"OBJECT_NAME":"KUIPER-00534","OBJECT_ID":"2026-140Q","EPOCH":"2026-07-19T12:40:27.718176","CLASSIFICATION_TYPE":"U","MEAN_MOTION":15.38790512,"ECCENTRICITY":0.00136095,"INCLINATION":51.8798,"RA_OF_ASC_NODE":241.9972,"ARG_OF_PERICENTER":285.2739,"MEAN_ANOMALY":74.6743,"EPHEMERIS_TYPE":0,"NORAD_CAT_ID":69606,"ELEMENT_SET_NO":999,"REV_AT_EPOCH":621,"BSTAR":0.00040297396,"MEAN_MOTION_DOT":0.00015376,"MEAN_MOTION_DDOT":0},{"OBJECT_NAME":"KUIPER-00537","OBJECT_ID":"2026-140R","EPOCH":"2026-07-20T06:00:04.000320","CLASSIFICATION_TYPE":"U","MEAN_MOTION":15.33076605,"ECCENTRICITY":0.00098573,"INCLINATION":51.8787,"RA_OF_ASC_NODE":239.4867,"ARG_OF_PERICENTER":75.1434,"MEAN_ANOMALY":204.6308,"EPHEMERIS_TYPE":0,"NORAD_CAT_ID":69607,"ELEMENT_SET_NO":999,"REV_AT_EPOCH":562,"BSTAR":-0.070882163,"MEAN_MOTION_DOT":-0.02079529,"MEAN_MOTION_DDOT":0},{"OBJECT_NAME":"KUIPER-00538","OBJECT_ID":"2026-140S","EPOCH":"2026-07-19T11:54:27.884448","CLASSIFICATION_TYPE":"U","MEAN_MOTION":15.3779172,"ECCENTRICITY":0.00069758,"INCLINATION":51.8792,"RA_OF_ASC_NODE":242.5218,"ARG_OF_PERICENTER":357.5822,"MEAN_ANOMALY":2.513,"EPHEMERIS_TYPE":0,"NORAD_CAT_ID":69608,"ELEMENT_SET_NO":999,"REV_AT_EPOCH":620,"BSTAR":0.00022566348,"MEAN_MOTION_DOT":0.0000813,"MEAN_MOTION_DDOT":0},{"OBJECT_NAME":"KUIPER-00540","OBJECT_ID":"2026-140T","EPOCH":"2026-07-20T02:17:22.968672","CLASSIFICATION_TYPE":"U","MEAN_MOTION":15.37038802,"ECCENTRICITY":0.00070371,"INCLINATION":51.8803,"RA_OF_ASC_NODE":239.7884,"ARG_OF_PERICENTER":39.8181,"MEAN_ANOMALY":320.332,"EPHEMERIS_TYPE":0,"NORAD_CAT_ID":69609,"ELEMENT_SET_NO":999,"REV_AT_EPOCH":629,"BSTAR":0.00056937836,"MEAN_MOTION_DOT":0.00020636,"MEAN_MOTION_DDOT":0},{"OBJECT_NAME":"KUIPER-00541","OBJECT_ID":"2026-140U","EPOCH":"2026-07-19T19:24:06.503904","CLASSIFICATION_TYPE":"U","MEAN_MOTION":15.38273025,"ECCENTRICITY":0.00081636,"INCLINATION":51.8797,"RA_OF_ASC_NODE":240.8721,"ARG_OF_PERICENTER":335.6482,"MEAN_ANOMALY":24.4119,"EPHEMERIS_TYPE":0,"NORAD_CAT_ID":69610,"ELEMENT_SET_NO":999,"REV_AT_EPOCH":625,"BSTAR":0.00024941056,"MEAN_MOTION_DOT":0.00009177,"MEAN_MOTION_DDOT":0},{"OBJECT_NAME":"KUIPER-00542","OBJECT_ID":"2026-140V","EPOCH":"2026-07-20T00:00:02.000160","CLASSIFICATION_TYPE":"U","MEAN_MOTION":15.38324015,"ECCENTRICITY":0.00076575,"INCLINATION":51.8763,"RA_OF_ASC_NODE":239.9182,"ARG_OF_PERICENTER":322.4531,"MEAN_ANOMALY":26.1851,"EPHEMERIS_TYPE":0,"NORAD_CAT_ID":69611,"ELEMENT_SET_NO":999,"REV_AT_EPOCH":529,"BSTAR":0.0014570015,"MEAN_MOTION_DOT":0.00055975,"MEAN_MOTION_DDOT":0},{"OBJECT_NAME":"KUIPER-00543","OBJECT_ID":"2026-140W","EPOCH":"2026-07-19T20:10:01.310880","CLASSIFICATION_TYPE":"U","MEAN_MOTION":15.36895383,"ECCENTRICITY":0.00080921,"INCLINATION":51.8768,"RA_OF_ASC_NODE":241.0615,"ARG_OF_PERICENTER":49.6286,"MEAN_ANOMALY":310.5406,"EPHEMERIS_TYPE":0,"NORAD_CAT_ID":69612,"ELEMENT_SET_NO":999,"REV_AT_EPOCH":625,"BSTAR":0.00031601248,"MEAN_MOTION_DOT":0.00011213,"MEAN_MOTION_DDOT":0},{"OBJECT_NAME":"KUIPER-00544","OBJECT_ID":"2026-140X","EPOCH":"2026-07-20T03:17:03.010560","CLASSIFICATION_TYPE":"U","MEAN_MOTION":15.38227276,"ECCENTRICITY":0.00072168,"INCLINATION":51.878,"RA_OF_ASC_NODE":239.3104,"ARG_OF_PERICENTER":339.4517,"MEAN_ANOMALY":20.6179,"EPHEMERIS_TYPE":0,"NORAD_CAT_ID":69613,"ELEMENT_SET_NO":999,"REV_AT_EPOCH":630,"BSTAR":0.000083876817,"MEAN_MOTION_DOT":0.00002814,"MEAN_MOTION_DDOT":0},{"OBJECT_NAME":"KUIPER-00546","OBJECT_ID":"2026-140Y","EPOCH":"2026-07-19T09:37:27.948288","CLASSIFICATION_TYPE":"U","MEAN_MOTION":15.38089874,"ECCENTRICITY":0.0013891,"INCLINATION":51.8772,"RA_OF_ASC_NODE":242.6349,"ARG_OF_PERICENTER":280.9689,"MEAN_ANOMALY":78.9735,"EPHEMERIS_TYPE":0,"NORAD_CAT_ID":69614,"ELEMENT_SET_NO":999,"REV_AT_EPOCH":619,"BSTAR":0.0002870798,"MEAN_MOTION_DOT":0.00010581,"MEAN_MOTION_DDOT":0},{"OBJECT_NAME":"KUIPER-00547","OBJECT_ID":"2026-140Z","EPOCH":"2026-07-19T10:00:39.733920","CLASSIFICATION_TYPE":"U","MEAN_MOTION":15.38334415,"ECCENTRICITY":0.00125389,"INCLINATION":51.8779,"RA_OF_ASC_NODE":242.7477,"ARG_OF_PERICENTER":306.5199,"MEAN_ANOMALY":53.4632,"EPHEMERIS_TYPE":0,"NORAD_CAT_ID":69615,"ELEMENT_SET_NO":999,"REV_AT_EPOCH":619,"BSTAR":0.0062075248,"MEAN_MOTION_DOT":0.00246263,"MEAN_MOTION_DDOT":0}]}
