KUIPER-00517            
1 69600U 26140J   26200.53637817  .00013564  00000+0  35677-3 0  9993
2 69600  51.8758 242.0390 0011246 311.9337  48.0691 15.38819819  6218
KUIPER-00520            
1 69601U 26140K   26200.43387754  .00019175  00000+0  51863-3 0  9994
2 69601  51.8804 242.8577 0006925   8.4448 351.6654 15.37708901  6192
KUIPER-00522            
1 69602U 26140L   26200.53361251  .00012465  00000+0  33031-3 0  9992
2 69602  51.8766 242.0251 0013147 283.3079  76.6442 15.38651516  6211
KUIPER-00528            
1 69603U 26140M   26200.82703874  .00009702  00000+0  26985-3 0  9996
2 69603  51.8754 240.9809 0005900  17.3134 342.8053 15.37490714  6250
KUIPER-00532            
1 69604U 26140N   26200.38589896  .00009674  00000+0  27728-3 0  9998
2 69604  51.8794 243.2657 0004899  54.4461 305.6982 15.36553619  6186
KUIPER-00533            
1 69605U 26140P   26200.80879915  .00012049  00000+0  32338-3 0  9993
2 69605  51.8761 240.8622 0008445 344.1922  15.8800 15.38336531  6259
KUIPER-00534            
1 69606U 26140Q   26200.52809859  .00015376  00000+0  40297-3 0  9992
2 69606  51.8798 241.9972 0013609 285.2739  74.6743 15.38790512  6217
KUIPER-00537            
1 69607U 26140R   26201.25004630 -.02079529  00000+0 -70882-1 0  9993
2 69607  51.8787 239.4867 0009857  75.1434 204.6308 15.33076605  5620
KUIPER-00538            
1 69608U 26140S   26200.49615607  .00008130  00000+0  22566-3 0  9995
2 69608  51.8792 242.5218 0006975 357.5822   2.5130 15.37791720  6207
KUIPER-00540            
1 69609U 26140T   26201.09540473  .00020636  00000+0  56938-3 0  9996
2 69609  51.8803 239.7884 0007037  39.8181 320.3320 15.37038802  6292
KUIPER-00541            
1 69610U 26140U   26200.80840861  .00009177  00000+0  24941-3 0  9996
2 69610  51.8797 240.8721 0008163 335.6482  24.4119 15.38273025  6254
KUIPER-00542            
1 69611U 26140V   26201.00002315  .00055975  00000+0  14570-2 0  9997
2 69611  51.8763 239.9182 0007657 322.4531  26.1851 15.38324015  5295
KUIPER-00543            
1 69612U 26140W   26200.84029295  .00011213  00000+0  31601-3 0  9997
2 69612  51.8768 241.0615 0008092  49.6286 310.5406 15.36895383  6257
KUIPER-00544            
1 69613U 26140X   26201.13684040  .00002814  00000+0  83877-4 0  9996
2 69613  51.8780 239.3104 0007216 339.4517  20.6179 15.38227276  6303
KUIPER-00546            
1 69614U 26140Y   26200.40101792  .00010581  00000+0  28708-3 0  9995
2 69614  51.8772 242.6349 0013891 280.9689  78.9735 15.38089874  6190
KUIPER-00547            
1 69615U 26140Z   26200.41712655  .00246263  00000+0  62075-2 0  9995
2 69615  51.8779 242.7477 0012538 306.5199  53.4632 15.38334415  6197
